[{"OBJECT_NAME":"STARLINK-6290","OBJECT_ID":"2023-099A","EPOCH":"2025-11-02T10:58:40.696608","MEAN_MOTION":15.0252961,"ECCENTRICITY":0.000122,"INCLINATION":43.0048,"RA_OF_ASC_NODE":220.6583,"ARG_OF_PERICENTER":269.9609,"MEAN_ANOMALY":90.1093,"EPHEMERIS_TYPE":0,"CLASSIFICATION_TYPE":"U","NORAD_CAT_ID":57328,"ELEMENT_SET_NO":999,"REV_AT_EPOCH":12788,"BSTAR":3.4585e-5,"MEAN_MOTION_DOT":2.64e-6,"MEAN_MOTION_DDOT":0},{"OBJECT_NAME":"STARLINK-6138","OBJECT_ID":"2023-099B","EPOCH":"2025-11-02T01:09:55.180512","MEAN_MOTION":15.02535698,"ECCENTRICITY":7.695e-5,"INCLINATION":43.0006,"RA_OF_ASC_NODE":222.7414,"ARG_OF_PERICENTER":260.4159,"MEAN_ANOMALY":99.6596,"EPHEMERIS_TYPE":0,"CLASSIFICATION_TYPE":"U","NORAD_CAT_ID":57329,"ELEMENT_SET_NO":999,"REV_AT_EPOCH":12691,"BSTAR":5.615385e-5,"MEAN_MOTION_DOT":5.55e-6,"MEAN_MOTION_DDOT":0},{"OBJECT_NAME":"STARLINK-6212","OBJECT_ID":"2023-099C","EPOCH":"2025-11-02T10:53:52.447200","MEAN_MOTION":15.02529267,"ECCENTRICITY":0.0001156,"INCLINATION":43.0045,"RA_OF_ASC_NODE":220.633,"ARG_OF_PERICENTER":268.958,"MEAN_ANOMALY":91.1129,"EPHEMERIS_TYPE":0,"CLASSIFICATION_TYPE":"U","NORAD_CAT_ID":57330,"ELEMENT_SET_NO":999,"REV_AT_EPOCH":12697,"BSTAR":0.00017815,"MEAN_MOTION_DOT":2.203e-5,"MEAN_MOTION_DDOT":0},{"OBJECT_NAME":"STARLINK-6234","OBJECT_ID":"2023-099D","EPOCH":"2025-11-02T10:52:17.048640","MEAN_MOTION":15.02534257,"ECCENTRICITY":0.0001536,"INCLINATION":43.0047,"RA_OF_ASC_NODE":220.6238,"ARG_OF_PERICENTER":274.14,"MEAN_ANOMALY":85.9267,"EPHEMERIS_TYPE":0,"CLASSIFICATION_TYPE":"U","NORAD_CAT_ID":57331,"ELEMENT_SET_NO":999,"REV_AT_EPOCH":12697,"BSTAR":1.1229e-6,"MEAN_MOTION_DOT":-1.89e-6,"MEAN_MOTION_DDOT":0},{"OBJECT_NAME":"STARLINK-5831","OBJECT_ID":"2023-099E","EPOCH":"2025-11-02T10:49:04.820736","MEAN_MOTION":15.02532752,"ECCENTRICITY":0.0001026,"INCLINATION":43.0039,"RA_OF_ASC_NODE":220.603,"ARG_OF_PERICENTER":269.3956,"MEAN_ANOMALY":90.6769,"EPHEMERIS_TYPE":0,"CLASSIFICATION_TYPE":"U","NORAD_CAT_ID":57332,"ELEMENT_SET_NO":999,"REV_AT_EPOCH":12697,"BSTAR":0.00014473,"MEAN_MOTION_DOT":1.752e-5,"MEAN_MOTION_DDOT":0},{"OBJECT_NAME":"STARLINK-5585","OBJECT_ID":"2023-099F","EPOCH":"2025-11-02T01:13:07.048128","MEAN_MOTION":15.02533628,"ECCENTRICITY":7.021e-5,"INCLINATION":42.9986,"RA_OF_ASC_NODE":222.7589,"ARG_OF_PERICENTER":200.3415,"MEAN_ANOMALY":159.74,"EPHEMERIS_TYPE":0,"CLASSIFICATION_TYPE":"U","NORAD_CAT_ID":57333,"ELEMENT_SET_NO":999,"REV_AT_EPOCH":12691,"BSTAR":3.2219176e-5,"MEAN_MOTION_DOT":2.32e-6,"MEAN_MOTION_DDOT":0},{"OBJECT_NAME":"STARLINK-5589","OBJECT_ID":"2023-099G","EPOCH":"2025-11-02T01:05:08.004192","MEAN_MOTION":15.02528711,"ECCENTRICITY":0.00012669,"INCLINATION":43.0035,"RA_OF_ASC_NODE":222.7179,"ARG_OF_PERICENTER":270.0078,"MEAN_ANOMALY":90.0619,"EPHEMERIS_TYPE":0,"CLASSIFICATION_TYPE":"U","NORAD_CAT_ID":57334,"ELEMENT_SET_NO":999,"REV_AT_EPOCH":12691,"BSTAR":3.1277711e-5,"MEAN_MOTION_DOT":2.19e-6,"MEAN_MOTION_DDOT":0},{"OBJECT_NAME":"STARLINK-6316","OBJECT_ID":"2023-099H","EPOCH":"2025-11-02T00:49:08.164992","MEAN_MOTION":15.02585206,"ECCENTRICITY":0.00017722,"INCLINATION":43.0063,"RA_OF_ASC_NODE":222.6432,"ARG_OF_PERICENTER":259.566,"MEAN_ANOMALY":100.4982,"EPHEMERIS_TYPE":0,"CLASSIFICATION_TYPE":"U","NORAD_CAT_ID":57335,"ELEMENT_SET_NO":999,"REV_AT_EPOCH":12691,"BSTAR":-0.0008318404,"MEAN_MOTION_DOT":-0.00011437,"MEAN_MOTION_DDOT":0},{"OBJECT_NAME":"STARLINK-6320","OBJECT_ID":"2023-099J","EPOCH":"2025-11-02T01:41:43.021248","MEAN_MOTION":15.02533941,"ECCENTRICITY":0.00012667,"INCLINATION":43.0029,"RA_OF_ASC_NODE":222.0359,"ARG_OF_PERICENTER":270.4048,"MEAN_ANOMALY":89.6649,"EPHEMERIS_TYPE":0,"CLASSIFICATION_TYPE":"U","NORAD_CAT_ID":57336,"ELEMENT_SET_NO":999,"REV_AT_EPOCH":12692,"BSTAR":2.0135449e-5,"MEAN_MOTION_DOT":6.8e-7,"MEAN_MOTION_DDOT":0},{"OBJECT_NAME":"STARLINK-6322","OBJECT_ID":"2023-099K","EPOCH":"2025-11-02T01:00:21.658176","MEAN_MOTION":15.02517922,"ECCENTRICITY":0.00015371,"INCLINATION":43.0053,"RA_OF_ASC_NODE":222.6965,"ARG_OF_PERICENTER":276.6501,"MEAN_ANOMALY":83.4166,"EPHEMERIS_TYPE":0,"CLASSIFICATION_TYPE":"U","NORAD_CAT_ID":57337,"ELEMENT_SET_NO":999,"REV_AT_EPOCH":12691,"BSTAR":-0.00017790099,"MEAN_MOTION_DOT":-2.605e-5,"MEAN_MOTION_DDOT":0},{"OBJECT_NAME":"STARLINK-6374","OBJECT_ID":"2023-099L","EPOCH":"2025-11-01T20:06:45.694368","MEAN_MOTION":15.02531728,"ECCENTRICITY":0.00015982,"INCLINATION":43.0066,"RA_OF_ASC_NODE":223.7446,"ARG_OF_PERICENTER":271.5411,"MEAN_ANOMALY":88.5249,"EPHEMERIS_TYPE":0,"CLASSIFICATION_TYPE":"U","NORAD_CAT_ID":57338,"ELEMENT_SET_NO":999,"REV_AT_EPOCH":12688,"BSTAR":-5.3683796e-5,"MEAN_MOTION_DOT":-9.29e-6,"MEAN_MOTION_DDOT":0},{"OBJECT_NAME":"STARLINK-6332","OBJECT_ID":"2023-099M","EPOCH":"2025-11-02T01:03:31.425408","MEAN_MOTION":15.02535797,"ECCENTRICITY":2.426e-5,"INCLINATION":43.0009,"RA_OF_ASC_NODE":222.7077,"ARG_OF_PERICENTER":187.3633,"MEAN_ANOMALY":172.7205,"EPHEMERIS_TYPE":0,"CLASSIFICATION_TYPE":"U","NORAD_CAT_ID":57339,"ELEMENT_SET_NO":999,"REV_AT_EPOCH":12691,"BSTAR":-7.2032552e-5,"MEAN_MOTION_DOT":-1.176e-5,"MEAN_MOTION_DDOT":0},{"OBJECT_NAME":"STARLINK-6321","OBJECT_ID":"2023-099N","EPOCH":"2025-11-02T11:46:27.020064","MEAN_MOTION":15.02538685,"ECCENTRICITY":0.0001203,"INCLINATION":43.0032,"RA_OF_ASC_NODE":220.0412,"ARG_OF_PERICENTER":272.0981,"MEAN_ANOMALY":87.9723,"EPHEMERIS_TYPE":0,"CLASSIFICATION_TYPE":"U","NORAD_CAT_ID":57340,"ELEMENT_SET_NO":999,"REV_AT_EPOCH":12698,"BSTAR":6.4282e-5,"MEAN_MOTION_DOT":6.65e-6,"MEAN_MOTION_DDOT":0},{"OBJECT_NAME":"STARLINK-6377","OBJECT_ID":"2023-099P","EPOCH":"2025-11-01T19:57:09.758880","MEAN_MOTION":15.02569755,"ECCENTRICITY":0.00014009,"INCLINATION":43.0031,"RA_OF_ASC_NODE":223.6941,"ARG_OF_PERICENTER":271.2987,"MEAN_ANOMALY":88.7695,"EPHEMERIS_TYPE":0,"CLASSIFICATION_TYPE":"U","NORAD_CAT_ID":57341,"ELEMENT_SET_NO":999,"REV_AT_EPOCH":12688,"BSTAR":-0.00052602259,"MEAN_MOTION_DOT":-7.308e-5,"MEAN_MOTION_DDOT":0},{"OBJECT_NAME":"STARLINK-6375","OBJECT_ID":"2023-099Q","EPOCH":"2025-11-02T11:22:28.620768","MEAN_MOTION":15.02530159,"ECCENTRICITY":0.0001148,"INCLINATION":43.0068,"RA_OF_ASC_NODE":219.9182,"ARG_OF_PERICENTER":267.8261,"MEAN_ANOMALY":92.245,"EPHEMERIS_TYPE":0,"CLASSIFICATION_TYPE":"U","NORAD_CAT_ID":57342,"ELEMENT_SET_NO":999,"REV_AT_EPOCH":12698,"BSTAR":0.00018336,"MEAN_MOTION_DOT":2.274e-5,"MEAN_MOTION_DDOT":0},{"OBJECT_NAME":"STARLINK-6379","OBJECT_ID":"2023-099R","EPOCH":"2025-11-02T11:49:39.183168","MEAN_MOTION":15.02527572,"ECCENTRICITY":0.000141,"INCLINATION":43.0036,"RA_OF_ASC_NODE":220.0557,"ARG_OF_PERICENTER":265.2592,"MEAN_ANOMALY":94.809,"EPHEMERIS_TYPE":0,"CLASSIFICATION_TYPE":"U","NORAD_CAT_ID":57343,"ELEMENT_SET_NO":999,"REV_AT_EPOCH":12698,"BSTAR":-3.1357e-5,"MEAN_MOTION_DOT":-6.27e-6,"MEAN_MOTION_DDOT":0}]
