STARLINK-6290           
1 57328U 23099A   25306.45741547  .00000264  00000+0  34585-4 0  9991
2 57328  43.0048 220.6583 0001220 269.9609  90.1093 15.02529610127887
STARLINK-6138           
1 57329U 23099B   25306.04855533  .00000555  00000+0  56154-4 0  9997
2 57329  43.0006 222.7414 0000769 260.4159  99.6596 15.02535698126919
STARLINK-6212           
1 57330U 23099C   25306.45407925  .00002203  00000+0  17815-3 0  9994
2 57330  43.0045 220.6330 0001156 268.9580  91.1129 15.02529267126970
STARLINK-6234           
1 57331U 23099D   25306.45297510 -.00000189  00000+0  11229-5 0  9999
2 57331  43.0047 220.6238 0001536 274.1400  85.9267 15.02534257126971
STARLINK-5831           
1 57332U 23099E   25306.45075024  .00001752  00000+0  14473-3 0  9992
2 57332  43.0039 220.6030 0001026 269.3956  90.6769 15.02532752126977
STARLINK-5585           
1 57333U 23099F   25306.05077602  .00000232  00000+0  32219-4 0  9994
2 57333  42.9986 222.7589 0000702 200.3415 159.7400 15.02533628126910
STARLINK-5589           
1 57334U 23099G   25306.04523153  .00000219  00000+0  31278-4 0  9990
2 57334  43.0035 222.7179 0001266 270.0078  90.0619 15.02528711126914
STARLINK-6316           
1 57335U 23099H   25306.03412228 -.00011437  00000+0 -83184-3 0  9998
2 57335  43.0063 222.6432 0001772 259.5660 100.4982 15.02585206126919
STARLINK-6320           
1 57336U 23099J   25306.07063682  .00000068  00000+0  20135-4 0  9993
2 57336  43.0029 222.0359 0001266 270.4048  89.6649 15.02533941126922
STARLINK-6322           
1 57337U 23099K   25306.04191734 -.00002605  00000+0 -17790-3 0  9994
2 57337  43.0053 222.6965 0001537 276.6501  83.4166 15.02517922126918
STARLINK-6374           
1 57338U 23099L   25305.83802887 -.00000929  00000+0 -53684-4 0  9999
2 57338  43.0066 223.7446 0001598 271.5411  88.5249 15.02531728126884
STARLINK-6332           
1 57339U 23099M   25306.04411372 -.00001176  00000+0 -72033-4 0  9993
2 57339  43.0009 222.7077 0000242 187.3633 172.7205 15.02535797126918
STARLINK-6321           
1 57340U 23099N   25306.49059051  .00000665  00000+0  64282-4 0  9993
2 57340  43.0032 220.0412 0001203 272.0981  87.9723 15.02538685126984
STARLINK-6377           
1 57341U 23099P   25305.83136295 -.00007308  00000+0 -52602-3 0  9992
2 57341  43.0031 223.6941 0001400 271.2987  88.7695 15.02569755126884
STARLINK-6375           
1 57342U 23099Q   25306.47394237  .00002274  00000+0  18336-3 0  9997
2 57342  43.0068 219.9182 0001148 267.8261  92.2450 15.02530159126981
STARLINK-6379           
1 57343U 23099R   25306.49281462 -.00000627  00000+0 -31357-4 0  9996
2 57343  43.0036 220.0557 0001410 265.2592  94.8090 15.02527572126980
